CE-SAT IIB              
1 46818U 20077F   26068.75480814  .00068981  00000+0  39536-3 0  9992
2 46818  97.2135 145.8612 0004281 159.2096 200.9346 15.78607824299507
STARLINK-36707          
1 67706U 26025P   26068.87581777  .00363987  00000+0  23355-2 0  9998
2 67706  97.2842 180.5285 0002126  39.5027 320.6393 15.75220972  5973
