[{"OBJECT_NAME":"CE-SAT IIB","OBJECT_ID":"2020-077F","EPOCH":"2026-03-09T18:06:55.423296","MEAN_MOTION":15.78607824,"ECCENTRICITY":0.00042807,"INCLINATION":97.2135,"RA_OF_ASC_NODE":145.8612,"ARG_OF_PERICENTER":159.2096,"MEAN_ANOMALY":200.9346,"EPHEMERIS_TYPE":0,"CLASSIFICATION_TYPE":"U","NORAD_CAT_ID":46818,"ELEMENT_SET_NO":999,"REV_AT_EPOCH":29950,"BSTAR":0.00039535619,"MEAN_MOTION_DOT":0.00068981,"MEAN_MOTION_DDOT":0},{"OBJECT_NAME":"STARLINK-36707","OBJECT_ID":"2026-025P","EPOCH":"2026-03-09T21:01:10.655328","MEAN_MOTION":15.75220972,"ECCENTRICITY":0.00021255,"INCLINATION":97.2842,"RA_OF_ASC_NODE":180.5285,"ARG_OF_PERICENTER":39.5027,"MEAN_ANOMALY":320.6393,"EPHEMERIS_TYPE":0,"CLASSIFICATION_TYPE":"U","NORAD_CAT_ID":67706,"ELEMENT_SET_NO":999,"REV_AT_EPOCH":597,"BSTAR":0.0023355477,"MEAN_MOTION_DOT":0.00363987,"MEAN_MOTION_DDOT":0}]
